{"type": "FeatureCollection", "features": [ {"type": "Feature", "properties": {"norad_id": 66708, "name": "FLOCK 4H-5", "group": "last-30-days", "lat": -35.5211486585614, "lon": -112.22333757464905, "alt_km": 517.5514879982766, "timestamp": "2025-12-27T14:26:29.242205+00:00", "meta": {"OBJECT_NAME": "FLOCK 4H-5", "OBJECT_ID": "2025-276AU", "EPOCH": "2025-12-27T05:35:06.388512", "MEAN_MOTION": 15.18227214, "ECCENTRICITY": 0.00013356, "INCLINATION": 97.4377, "RA_OF_ASC_NODE": 72.7648, "ARG_OF_PERICENTER": 125.8016, "MEAN_ANOMALY": 234.3343, "EPHEMERIS_TYPE": 0, "CLASSIFICATION_TYPE": "U", "NORAD_CAT_ID": 66708, "ELEMENT_SET_NO": 999, "REV_AT_EPOCH": 432, "BSTAR": 0.00052433136, "MEAN_MOTION_DOT": 0.00010671, "MEAN_MOTION_DDOT": 0}, "tle": {"line1": "1 66708U 25276AU  25361.23271283  .00010671  00000+0  52433-3 0  9998", "line2": "2 66708  97.4377  72.7648 0001335 125.8016 234.3343 15.18227214  4329"}}, "geometry": {"type": "Point", "coordinates": [-112.22333757464905, -35.5211486585614]}}, {"type": "Feature", "properties": {"norad_id": 66709, "name": "FLOCK 4H-6", "group": "last-30-days", "lat": -12.291020974212689, "lon": -108.49328054828166, "alt_km": 513.0031759984868, "timestamp": "2025-12-27T14:26:29.242215+00:00", "meta": {"OBJECT_NAME": "FLOCK 4H-6", "OBJECT_ID": "2025-276AV", "EPOCH": "2025-12-27T05:41:20.501376", "MEAN_MOTION": 15.18282996, "ECCENTRICITY": 0.00032896, "INCLINATION": 97.4423, "RA_OF_ASC_NODE": 72.7799, "ARG_OF_PERICENTER": 169.9394, "MEAN_ANOMALY": 190.1906, "EPHEMERIS_TYPE": 0, "CLASSIFICATION_TYPE": "U", "NORAD_CAT_ID": 66709, "ELEMENT_SET_NO": 999, "REV_AT_EPOCH": 432, "BSTAR": 0.010235709, "MEAN_MOTION_DOT": 0.00215887, "MEAN_MOTION_DDOT": 0}, "tle": {"line1": "1 66709U 25276AV  25361.23704284  .00215887  00000+0  10236-1 0  9990", "line2": "2 66709  97.4423  72.7799 0003289 169.9394 190.1906 15.18282996  4329"}}, "geometry": {"type": "Point", "coordinates": [-108.49328054828166, -12.291020974212689]}}, {"type": "Feature", "properties": {"norad_id": 66710, "name": "FLOCK 4H-7", "group": "last-30-days", "lat": 35.60196249921202, "lon": -101.53723215342416, "alt_km": 511.17388390238193, "timestamp": "2025-12-27T14:26:29.242228+00:00", "meta": {"OBJECT_NAME": "FLOCK 4H-7", "OBJECT_ID": "2025-276AW", "EPOCH": "2025-12-27T05:53:47.504544", "MEAN_MOTION": 15.17540318, "ECCENTRICITY": 0.00010464, "INCLINATION": 97.4383, "RA_OF_ASC_NODE": 72.7457, "ARG_OF_PERICENTER": 256.344, "MEAN_ANOMALY": 103.7677, "EPHEMERIS_TYPE": 0, "CLASSIFICATION_TYPE": "U", "NORAD_CAT_ID": 66710, "ELEMENT_SET_NO": 999, "REV_AT_EPOCH": 432, "BSTAR": 0.00031668233, "MEAN_MOTION_DOT": 6.289e-05, "MEAN_MOTION_DDOT": 0}, "tle": {"line1": "1 66710U 25276AW  25361.24568871  .00006289  00000+0  31668-3 0  9991", "line2": "2 66710  97.4383  72.7457 0001046 256.3440 103.7677 15.17540318  4328"}}, "geometry": {"type": "Point", "coordinates": [-101.53723215342416, 35.60196249921202]}}, {"type": "Feature", "properties": {"norad_id": 66711, "name": "FLOCK 4H-8", "group": "last-30-days", "lat": 36.847769808549195, "lon": -101.26033045514191, "alt_km": 510.97701304573, "timestamp": "2025-12-27T14:26:29.242238+00:00", "meta": {"OBJECT_NAME": "FLOCK 4H-8", "OBJECT_ID": "2025-276AX", "EPOCH": "2025-12-27T05:54:07.183008", "MEAN_MOTION": 15.17548168, "ECCENTRICITY": 0.00024189, "INCLINATION": 97.4424, "RA_OF_ASC_NODE": 72.7682, "ARG_OF_PERICENTER": 244.0652, "MEAN_ANOMALY": 116.0332, "EPHEMERIS_TYPE": 0, "CLASSIFICATION_TYPE": "U", "NORAD_CAT_ID": 66711, "ELEMENT_SET_NO": 999, "REV_AT_EPOCH": 432, "BSTAR": 0.0005189049, "MEAN_MOTION_DOT": 0.00010356, "MEAN_MOTION_DDOT": 0}, "tle": {"line1": "1 66711U 25276AX  25361.24591647  .00010356  00000+0  51890-3 0  9998", "line2": "2 66711  97.4424  72.7682 0002418 244.0652 116.0332 15.17548168  4324"}}, "geometry": {"type": "Point", "coordinates": [-101.26033045514191, 36.847769808549195]}}, {"type": "Feature", "properties": {"norad_id": 66712, "name": "FLOCK 4H-9", "group": "last-30-days", "lat": -10.508251981680845, "lon": -108.25315710241438, "alt_km": 514.2337137517152, "timestamp": "2025-12-27T14:26:29.242251+00:00", "meta": {"OBJECT_NAME": "FLOCK 4H-9", "OBJECT_ID": "2025-276AY", "EPOCH": "2025-12-27T06:00:02.000160", "MEAN_MOTION": 15.17990637, "ECCENTRICITY": 0.00030211, "INCLINATION": 97.4411, "RA_OF_ASC_NODE": 72.7902, "ARG_OF_PERICENTER": 200.0036, "MEAN_ANOMALY": 229.7271, "EPHEMERIS_TYPE": 0, "CLASSIFICATION_TYPE": "U", "NORAD_CAT_ID": 66712, "ELEMENT_SET_NO": 999, "REV_AT_EPOCH": 130, "BSTAR": -0.00079998159, "MEAN_MOTION_DOT": -0.0001628, "MEAN_MOTION_DDOT": 0}, "tle": {"line1": "1 66712U 25276AY  25361.25002315 -.00016280  00000+0 -79998-3 0  9992", "line2": "2 66712  97.4411  72.7902 0003021 200.0036 229.7271 15.17990637  1306"}}, "geometry": {"type": "Point", "coordinates": [-108.25315710241438, -10.508251981680845]}}, {"type": "Feature", "properties": {"norad_id": 66713, "name": "FLOCK 4H-10", "group": "last-30-days", "lat": 57.55486432935388, "lon": -95.04742209345585, "alt_km": 509.20793499015326, "timestamp": "2025-12-27T14:26:29.242265+00:00", "meta": {"OBJECT_NAME": "FLOCK 4H-10", "OBJECT_ID": "2025-276AZ", "EPOCH": "2025-12-27T04:24:38.382912", "MEAN_MOTION": 15.17333427, "ECCENTRICITY": 0.00035798, "INCLINATION": 97.4388, "RA_OF_ASC_NODE": 72.682, "ARG_OF_PERICENTER": 232.5745, "MEAN_ANOMALY": 127.5163, "EPHEMERIS_TYPE": 0, "CLASSIFICATION_TYPE": "U", "NORAD_CAT_ID": 66713, "ELEMENT_SET_NO": 999, "REV_AT_EPOCH": 431, "BSTAR": 0.00039806637, "MEAN_MOTION_DOT": 7.878e-05, "MEAN_MOTION_DDOT": 0}, "tle": {"line1": "1 66713U 25276AZ  25361.18377758  .00007878  00000+0  39807-3 0  9997", "line2": "2 66713  97.4388  72.6820 0003579 232.5745 127.5163 15.17333427  4310"}}, "geometry": {"type": "Point", "coordinates": [-95.04742209345585, 57.55486432935388]}}, {"type": "Feature", "properties": {"norad_id": 66714, "name": "FLOCK 4H-11", "group": "last-30-days", "lat": 20.268223577271634, "lon": -104.11334347802772, "alt_km": 512.323307413656, "timestamp": "2025-12-27T14:26:29.242277+00:00", "meta": {"OBJECT_NAME": "FLOCK 4H-11", "OBJECT_ID": "2025-276BA", "EPOCH": "2025-12-27T05:49:49.308384", "MEAN_MOTION": 15.1789329, "ECCENTRICITY": 0.00021177, "INCLINATION": 97.4407, "RA_OF_ASC_NODE": 72.7677, "ARG_OF_PERICENTER": 251.8161, "MEAN_ANOMALY": 108.2843, "EPHEMERIS_TYPE": 0, "CLASSIFICATION_TYPE": "U", "NORAD_CAT_ID": 66714, "ELEMENT_SET_NO": 999, "REV_AT_EPOCH": 432, "BSTAR": 0.00060026826, "MEAN_MOTION_DOT": 0.00012112, "MEAN_MOTION_DDOT": 0}, "tle": {"line1": "1 66714U 25276BA  25361.24293181  .00012112  00000+0  60027-3 0  9997", "line2": "2 66714  97.4407  72.7677 0002117 251.8161 108.2843 15.17893290  4328"}}, "geometry": {"type": "Point", "coordinates": [-104.11334347802772, 20.268223577271634]}}, {"type": "Feature", "properties": {"norad_id": 66715, "name": "FLOCK 4H-12", "group": "last-30-days", "lat": -24.531447813972033, "lon": -110.29595298103403, "alt_km": 515.8263403486189, "timestamp": "2025-12-27T14:26:29.242288+00:00", "meta": {"OBJECT_NAME": "FLOCK 4H-12", "OBJECT_ID": "2025-276BB", "EPOCH": "2025-12-27T06:00:02.000160", "MEAN_MOTION": 15.18145066, "ECCENTRICITY": 0.00022222, "INCLINATION": 97.4379, "RA_OF_ASC_NODE": 72.7765, "ARG_OF_PERICENTER": 173.8072, "MEAN_ANOMALY": 269.8713, "EPHEMERIS_TYPE": 0, "CLASSIFICATION_TYPE": "U", "NORAD_CAT_ID": 66715, "ELEMENT_SET_NO": 999, "REV_AT_EPOCH": 130, "BSTAR": -0.00075731096, "MEAN_MOTION_DOT": -0.00015484, "MEAN_MOTION_DDOT": 0}, "tle": {"line1": "1 66715U 25276BB  25361.25002315 -.00015484  00000+0 -75731-3 0  9991", "line2": "2 66715  97.4379  72.7765 0002222 173.8072 269.8713 15.18145066  1303"}}, "geometry": {"type": "Point", "coordinates": [-110.29595298103403, -24.531447813972033]}}, {"type": "Feature", "properties": {"norad_id": 66716, "name": "FLOCK 4H-13", "group": "last-30-days", "lat": -37.75410702549537, "lon": -112.66552210803383, "alt_km": 517.3027630086208, "timestamp": "2025-12-27T14:26:29.242298+00:00", "meta": {"OBJECT_NAME": "FLOCK 4H-13", "OBJECT_ID": "2025-276BC", "EPOCH": "2025-12-27T05:34:31.437984", "MEAN_MOTION": 15.18259191, "ECCENTRICITY": 0.00020283, "INCLINATION": 97.4418, "RA_OF_ASC_NODE": 72.7806, "ARG_OF_PERICENTER": 138.822, "MEAN_ANOMALY": 221.3167, "EPHEMERIS_TYPE": 0, "CLASSIFICATION_TYPE": "U", "NORAD_CAT_ID": 66716, "ELEMENT_SET_NO": 999, "REV_AT_EPOCH": 432, "BSTAR": 0.00085037949, "MEAN_MOTION_DOT": 0.0001738, "MEAN_MOTION_DDOT": 0}, "tle": {"line1": "1 66716U 25276BC  25361.23230831  .00017380  00000+0  85038-3 0  9992", "line2": "2 66716  97.4418  72.7806 0002028 138.8220 221.3167 15.18259191  4320"}}, "geometry": {"type": "Point", "coordinates": [-112.66552210803383, -37.75410702549537]}}, {"type": "Feature", "properties": {"norad_id": 66717, "name": "FLOCK 4H-14", "group": "last-30-days", "lat": -50.94179163534659, "lon": -116.12292197463678, "alt_km": 517.9261386300368, "timestamp": "2025-12-27T14:26:29.242310+00:00", "meta": {"OBJECT_NAME": "FLOCK 4H-14", "OBJECT_ID": "2025-276BD", "EPOCH": "2025-12-26T20:01:39.073728", "MEAN_MOTION": 15.18400823, "ECCENTRICITY": 0.0001792, "INCLINATION": 97.4407, "RA_OF_ASC_NODE": 72.3904, "ARG_OF_PERICENTER": 129.2859, "MEAN_ANOMALY": 230.8535, "EPHEMERIS_TYPE": 0, "CLASSIFICATION_TYPE": "U", "NORAD_CAT_ID": 66717, "ELEMENT_SET_NO": 999, "REV_AT_EPOCH": 351, "BSTAR": 0.0003902, "MEAN_MOTION_DOT": 7.961e-05, "MEAN_MOTION_DDOT": 0}, "tle": {"line1": "1 66717U 25276BD  25360.83448002  .00007961  00000+0  39020-3 0  9993", "line2": "2 66717  97.4407  72.3904 0001792 129.2859 230.8535 15.18400823  3517"}}, "geometry": {"type": "Point", "coordinates": [-116.12292197463678, -50.94179163534659]}}]}